MEAN_MOTION;ECCENTRICITY;INCLINATION;RA_OF_ASC_NODE;ARG_OF_PERICENTER;MEAN_ANOMALY;BSTAR;MEAN_MOTION_DOT;MEAN_MOTION_DDOT;TYPE
1.00271451;0.0001791;0.0148;192.6318;163.4172;97.8141;0;-2.96E-6;0;Intelsat
1.00270994;0.000183;0.0134;190.0833;168.8004;74.8415;0;-3.0E-6;0;Intelsat
1.00270973;0.0001832;0.0136;188.3791;170.562;91.5571;0;-3.0E-6;0;Intelsat
1.00270716;0.0001849;0.0134;185.3849;175.3522;297.0955;0;-3.02E-6;0;Intelsat
1.00269314;0.0001836;0.0291;235.7449;124.1914;208.4389;0;-3.04E-6;0;Intelsat
1.0026912;0.0001839;0.0284;234.0329;127.823;309.8994;0;-3.05E-6;0;Intelsat
1.00268941;0.0001851;0.0272;231.9878;131.956;82.2142;0;-3.06E-6;0;Intelsat
1.002687;0.0001856;0.0258;229.3261;136.0566;298.0225;0;-3.07E-6;0;Intelsat
1.00276039;0.0002063;0.0235;225.5844;139.5795;297.2092;0;-3.08E-6;0;Intelsat
1.00276111;0.0001716;0.0222;222.8143;142.0625;70.9197;0;-3.08E-6;0;Intelsat
1.00273076;0.0001927;0.0213;221.4925;140.0411;196.5383;0;-3.08E-6;0;Intelsat
1.0027286;0.0001923;0.0198;217.5711;146.9564;74.0709;0;-3.07E-6;0;Intelsat
1.00272662;0.0001913;0.0187;214.9236;151.764;305.1579;0;-3.07E-6;0;Intelsat
1.00272589;0.0001919;0.0179;212.6185;155.4141;76.8358;0;-3.06E-6;0;Intelsat
1.00272348;0.0001911;0.0163;207.7947;163.9784;78.6645;0;-3.05E-6;0;Intelsat
1.00271358;0.0001856;0.0328;243.8371;128.4235;48.8316;0;-3.04E-6;0;Intelsat
1.00271354;0.0001855;0.0305;241.5666;137.783;57.6654;0;-3.03E-6;0;Intelsat
1.00271023;0.0001819;0.0282;238.8254;140.4366;63.4484;0;-3.03E-6;0;Intelsat
1.0027093;0.0001795;0.027;237.1738;143.4377;288.9144;0;-3.02E-6;0;Intelsat
1.00270851;0.0001785;0.0261;236.1023;144.6656;48.7333;0;-3.02E-6;0;Intelsat
1.00273003;0.0001799;0.0249;234.0067;147.1792;262.2125;0;-3.02E-6;0;Intelsat
1.00272991;0.0001802;0.0249;233.9152;147.4392;281.3801;0;-3.01E-6;0;Intelsat
1.00272573;0.0001772;0.0239;232.3949;148.4325;75.0084;0;-3.01E-6;0;Intelsat
1.00272409;0.0001752;0.0229;230.5274;151.83;284.8868;0;-3.01E-6;0;Intelsat
1.00272267;0.0001745;0.022;228.7501;154.0708;77.5323;0;-3.0E-6;0;Intelsat
1.00272051;0.0001728;0.021;226.6861;157.2191;290.0909;0;-2.99E-6;0;Intelsat
1.00271919;0.0001722;0.0201;224.766;159.2995;79.7385;0;-2.99E-6;0;Intelsat
1.00271573;0.0001704;0.0184;220.7627;164.4222;61.1644;0;-2.97E-6;0;Intelsat
1.00271553;0.0001702;0.0184;220.597;164.5802;81.4257;0;-2.97E-6;0;Intelsat
1.0027116;0.0001682;0.0169;216.3942;169.343;83.6679;0;-2.95E-6;0;Intelsat
1.002711;0.0001678;0.0167;216.1791;169.5217;135.5379;0;-2.95E-6;0;Intelsat
1.00270763;0.0001666;0.0155;212.2911;173.7921;73.0743;0;-2.93E-6;0;Intelsat
1.00273988;0.0001623;0.0144;208.9875;168.7031;49.298;0;-2.91E-6;0;Intelsat
1.00273697;0.0001604;0.0144;208.6625;168.9639;97.3928;0;-2.9E-6;0;Intelsat
1.00273188;0.0001598;0.0134;204.8058;171.992;94.7681;0;-2.88E-6;0;Intelsat
1.00273099;0.0001603;0.0131;204.6012;171.8577;164.33;0;-2.88E-6;0;Intelsat
1.00272903;0.0001602;0.0129;204.04;171.9062;309.1862;0;-2.87E-6;0;Intelsat
1.00272698;0.0001598;0.0127;201.3756;174.5079;100.0097;0;-2.86E-6;0;Intelsat
1.00272458;0.0001609;0.0125;199.1646;176.4672;282.3072;0;-2.85E-6;0;Intelsat
1.00272229;0.0001603;0.0124;197.109;178.6713;81.7333;0;-2.84E-6;0;Intelsat
1.00271755;0.0001617;0.0124;192.2497;183.5241;56.1706;0;-2.84E-6;0;Intelsat
1.00271714;0.0001618;0.0124;192.167;183.6991;84.4461;0;-2.84E-6;0;Intelsat
1.00271551;0.0001635;0.0123;189.5537;186.3759;204.0634;0;-2.84E-6;0;Intelsat
1.00398994;0.0008566;0.0239;189.4171;184.8875;141.0763;0;-2.8E-6;0;Intelsat
1.00394625;0.0007602;0.0224;184.5182;190.544;296.0171;0;-2.8E-6;0;Intelsat
1.00400051;0.0007873;0.0226;182.0374;194.493;90.2773;0;-2.8E-6;0;Intelsat
1.00365239;0.0009425;0.0292;161.9434;222.5213;149.7464;0;-2.84E-6;0;Intelsat
1.00364622;0.0009671;0.0289;147.5235;235.7799;294.1402;0;-2.85E-6;0;Intelsat
1.00585235;0.0027921;0.0432;92.0876;310.2682;179.5866;0;-2.69E-6;0;Intelsat
1.00605071;0.0028694;0.0464;92.3314;310.4564;316.9603;0;-2.67E-6;0;Intelsat
1.00599138;0.0029203;0.0406;89.8517;313.6503;74.3043;0;-2.68E-6;0;Intelsat
1.00603828;0.0029094;0.0469;94.5268;307.1863;76.0895;0;-2.67E-6;0;Intelsat
1.00581303;0.0029621;0.0449;93.4384;310.4031;125.9541;0;-2.69E-6;0;Intelsat
1.00586887;0.0029611;0.0468;94.5778;308.5537;147.079;0;-2.69E-6;0;Intelsat
1.00589446;0.0029601;0.0472;93.7086;309.1752;230.9105;0;-2.68E-6;0;Intelsat
1.00596339;0.0030071;0.0465;93.2923;308.8871;27.6632;0;-2.67E-6;0;Intelsat
1.00600162;0.0030054;0.0472;93.6285;309.1674;76.4612;0;-2.67E-6;0;Intelsat
1.00600188;0.0030051;0.0471;93.6925;309.1041;79.0948;0;-2.67E-6;0;Intelsat
1.00580066;0.0030567;0.0474;94.2377;310.255;158.0839;0;-2.68E-6;0;Intelsat
1.00595821;0.0031242;0.0482;94.2313;308.9205;295.3981;0;-2.66E-6;0;Intelsat
1.00599085;0.003118;0.0508;92.1823;311.3935;55.6779;0;-2.65E-6;0;Intelsat
1.00598664;0.0031185;0.0508;92.2259;311.3088;82.6147;0;-2.65E-6;0;Intelsat
1.00592985;0.0031538;0.0516;92.4931;311.1212;177.2093;0;-2.65E-6;0;Intelsat
1.00588595;0.0031909;0.0532;91.9881;312.3221;85.6597;0;-2.63E-6;0;Intelsat
1.00593741;0.0031864;0.0543;91.9061;311.9617;268.088;0;-2.61E-6;0;Intelsat
1.00593361;0.0030522;0.0527;94.8438;308.6993;268.406;0;-2.61E-6;0;Intelsat
1.00594397;0.0031975;0.0555;91.9212;311.994;109.5897;0;-2.58E-6;0;Intelsat
1.00594131;0.0032048;0.0575;91.8573;312.2993;67.9171;0;-2.53E-6;0;Intelsat
1.00594034;0.003204;0.0588;92.135;312.1202;275.8219;0;-2.49E-6;0;Intelsat
1.00593794;0.0032092;0.0605;92.1983;312.2488;209.8931;0;-2.44E-6;0;Intelsat
1.00593453;0.0031967;0.0618;92.3479;312.1676;90.8041;0;-2.39E-6;0;Intelsat
1.00593595;0.0031947;0.0628;92.5245;312.123;272.1435;0;-2.36E-6;0;Intelsat
1.0059345;0.0031947;0.0638;92.6509;312.0617;98.2566;0;-2.32E-6;0;Intelsat
1.00593413;0.0031948;0.0656;89.8902;314.7269;229.3284;0;-2.3E-6;0;Intelsat
1.00593273;0.003185;0.0656;92.9945;311.9359;83.348;0;-2.25E-6;0;Intelsat
1.00593121;0.0031747;0.0672;93.1744;311.8604;61.3049;0;-2.18E-6;0;Intelsat
1.00593082;0.0031742;0.0674;93.2469;311.7913;86.608;0;-2.18E-6;0;Intelsat
1.00592722;0.0031825;0.0687;91.8873;312.1195;140.326;0;-2.17E-6;0;Intelsat
1.00593027;0.003174;0.0677;93.297;311.825;180.9902;0;-2.16E-6;0;Intelsat
1.00592641;0.0031524;0.0687;93.5784;311.5414;69.0562;0;-2.11E-6;0;Intelsat
1.0059268;0.0031526;0.0688;93.6566;311.4526;91.2925;0;-2.1E-6;0;Intelsat
1.00593074;0.0031497;0.0697;93.9156;311.3057;297.4152;0;-2.06E-6;0;Intelsat
1.00593015;0.003148;0.0699;93.8775;311.3707;17.1687;0;-2.04E-6;0;Intelsat
1.00592985;0.0031305;0.0707;94.0627;311.2974;190.5188;0;-2.0E-6;0;Intelsat
1.00593214;0.0031324;0.0712;94.342;311.0126;303.0765;0;-1.98E-6;0;Intelsat
1.00592489;0.0031248;0.072;94.5062;310.9385;99.053;0;-1.94E-6;0;Intelsat
1.00592828;0.0031157;0.0731;94.6771;310.7756;307.0018;0;-1.89E-6;0;Intelsat
1.00592214;0.0031102;0.0739;94.8614;310.6561;112.4224;0;-1.85E-6;0;Intelsat
1.00592075;0.0030959;0.0751;95.135;310.3585;331.7399;0;-1.8E-6;0;Intelsat
1.00591994;0.0030941;0.0759;95.2058;310.2868;96.2949;0;-1.77E-6;0;Intelsat
1.00591385;0.0030811;0.0776;95.3015;310.1098;79.0378;0;-1.68E-6;0;Intelsat
1.00591625;0.0030803;0.0777;95.3175;310.1405;101.4405;0;-1.67E-6;0;Intelsat
1.00592155;0.0030726;0.0788;95.3978;310.1547;293.0575;0;-1.62E-6;0;Intelsat
1.00592097;0.0030551;0.081;95.5384;309.9628;297.0971;0;-1.51E-6;0;Intelsat
1.00591701;0.0030521;0.0818;95.5289;310.0319;93.485;0;-1.46E-6;0;Intelsat
1.00591586;0.0030501;0.0825;95.5618;309.9776;213.5951;0;-1.43E-6;0;Intelsat
1.00591155;0.0030308;0.0847;95.7797;309.7103;232.9559;0;-1.32E-6;0;Intelsat
1.00591211;0.0030281;0.085;95.845;309.616;305.2119;0;-1.3E-6;0;Intelsat
1.00590962;0.0030254;0.0861;95.9507;309.4845;127.3005;0;-1.24E-6;0;Intelsat
1.00590955;0.0030101;0.0872;96.0285;309.3872;309.3168;0;-1.19E-6;0;Intelsat
1.00590566;0.0030073;0.0882;96.1365;309.2662;105.3664;0;-1.15E-6;0;Intelsat
1.00590704;0.0030023;0.0894;96.2852;309.0634;313.4108;0;-1.1E-6;0;Intelsat
1.00590289;0.0029937;0.0903;96.413;309.0348;95.882;0;-1.06E-6;0;Intelsat
1.00590505;0.0029925;0.0915;96.6011;308.7089;317.3879;0;-1.0E-6;0;Intelsat
1.00590065;0.0029811;0.0925;96.7559;308.6351;113.4417;0;-9.7E-7;0;Intelsat
1.00589749;0.0029718;0.0945;96.9713;308.3238;108.9095;0;-8.9E-7;0;Intelsat
1.00589503;0.0029618;0.0966;97.291;307.9776;69.6444;0;-8.3E-7;0;Intelsat
1.00589722;0.002964;0.0975;97.364;307.9575;212.0393;0;-8.1E-7;0;Intelsat
1.00589718;0.0029537;0.1002;97.6842;307.6576;295.7374;0;-7.4E-7;0;Intelsat
1.00589602;0.0029532;0.1009;97.7129;307.6532;25.5919;0;-7.2E-7;0;Intelsat
1.00589453;0.0029542;0.1021;97.8208;307.5952;207.5358;0;-7.0E-7;0;Intelsat
1.00589215;0.0029497;0.1047;98.0557;307.4192;220.1431;0;-6.4E-7;0;Intelsat
1.00588856;0.0029364;0.1063;98.1325;307.3587;111.5416;0;-6.0E-7;0;Intelsat
1.00589154;0.002937;0.1072;98.1964;307.3922;251.383;0;-5.7E-7;0;Intelsat
1.00589224;0.0029364;0.1075;98.2228;307.3573;293.4473;0;-5.7E-7;0;Intelsat
1.00588946;0.0029315;0.1088;98.2522;307.4575;141.3505;0;-5.3E-7;0;Intelsat
1.00589188;0.0029311;0.11;98.3256;307.445;318.6595;0;-4.9E-7;0;Intelsat
1.00588786;0.0029254;0.1112;98.3797;307.4813;119.2401;0;-4.6E-7;0;Intelsat
1.00589107;0.002925;0.1126;98.4225;307.5879;326.9891;0;-4.1E-7;0;Intelsat
1.00589013;0.0029252;0.1135;98.4838;307.6633;96.9929;0;-3.8E-7;0;Intelsat
1.00589088;0.0029138;0.1161;98.5696;307.6153;126.9942;0;-2.8E-7;0;Intelsat
1.00589233;0.0029075;0.1187;98.7009;307.712;130.7841;0;-1.8E-7;0;Intelsat
1.00589467;0.0029066;0.1193;98.7445;307.7618;219.5603;0;-1.6E-7;0;Intelsat
1.00589356;0.0028988;0.1208;98.8211;307.8198;108.598;0;-9.0E-8;0;Intelsat
1.00589625;0.0028985;0.1217;98.8592;307.8834;231.5121;0;-6.0E-8;0;Intelsat
1.00589449;0.0029166;0.1214;98.3938;307.8101;35.0428;0;-1.0E-8;0;Intelsat
1.00589988;0.0028796;0.1246;98.9664;307.9907;320.2843;0;6.0E-8;0;Intelsat
1.00589957;0.0028794;0.1257;98.9983;308.0454;116.2569;0;1.0E-7;0;Intelsat
1.00590325;0.0028768;0.1269;99.0153;308.0588;324.2024;0;1.5E-7;0;Intelsat
1.00590334;0.0028747;0.1279;99.0548;308.1238;120.1662;0;1.9E-7;0;Intelsat
1.00590441;0.0028553;0.1303;99.0471;308.2975;124.0279;0;2.8E-7;0;Intelsat
